CCSDS_OMM_VERS = 2.0
CREATION_DATE  = 
ORIGINATOR     = 

OBJECT_NAME    = KUIPER-00144
OBJECT_ID      = 2025-301A
CENTER_NAME    = EARTH
REF_FRAME      = TEME
TIME_SYSTEM    = UTC
MEAN_ELEMENT_THEORY = SGP/SGP4

EPOCH          = 2026-01-02T22:09:22.217184
MEAN_MOTION    = 15.35769097
ECCENTRICITY   = .00063174
INCLINATION    = 51.8707
RA_OF_ASC_NODE = 22.9770
ARG_OF_PERICENTER = 141.9205
MEAN_ANOMALY   = 218.2229

EPHEMERIS_TYPE = 0
CLASSIFICATION_TYPE = U
NORAD_CAT_ID   = 67133
ELEMENT_SET_NO = 999
REV_AT_EPOCH   = 362
BSTAR          = .70597914E-3
MEAN_MOTION_DOT = .24652E-3
MEAN_MOTION_DDOT = 0

CCSDS_OMM_VERS = 2.0
CREATION_DATE  = 
ORIGINATOR     = 

OBJECT_NAME    = KUIPER-00164
OBJECT_ID      = 2025-301B
CENTER_NAME    = EARTH
REF_FRAME      = TEME
TIME_SYSTEM    = UTC
MEAN_ELEMENT_THEORY = SGP/SGP4

EPOCH          = 2026-01-02T21:57:51.857856
MEAN_MOTION    = 15.36407814
ECCENTRICITY   = .00029987
INCLINATION    = 51.8732
RA_OF_ASC_NODE = 22.9257
ARG_OF_PERICENTER = 124.7860
MEAN_ANOMALY   = 235.3409

EPHEMERIS_TYPE = 0
CLASSIFICATION_TYPE = U
NORAD_CAT_ID   = 67134
ELEMENT_SET_NO = 999
REV_AT_EPOCH   = 380
BSTAR          = .88172577E-3
MEAN_MOTION_DOT = .31547E-3
MEAN_MOTION_DDOT = 0

CCSDS_OMM_VERS = 2.0
CREATION_DATE  = 
ORIGINATOR     = 

OBJECT_NAME    = KUIPER-00175
OBJECT_ID      = 2025-301C
CENTER_NAME    = EARTH
REF_FRAME      = TEME
TIME_SYSTEM    = UTC
MEAN_ELEMENT_THEORY = SGP/SGP4

EPOCH          = 2026-01-02T21:49:50.394720
MEAN_MOTION    = 15.36931402
ECCENTRICITY   = .00026596
INCLINATION    = 51.8748
RA_OF_ASC_NODE = 22.8846
ARG_OF_PERICENTER = 76.8227
MEAN_ANOMALY   = 283.3056

EPHEMERIS_TYPE = 0
CLASSIFICATION_TYPE = U
NORAD_CAT_ID   = 67135
ELEMENT_SET_NO = 999
REV_AT_EPOCH   = 369
BSTAR          = .95471715E-3
MEAN_MOTION_DOT = .34791E-3
MEAN_MOTION_DDOT = 0

CCSDS_OMM_VERS = 2.0
CREATION_DATE  = 
ORIGINATOR     = 

OBJECT_NAME    = KUIPER-00179
OBJECT_ID      = 2025-301D
CENTER_NAME    = EARTH
REF_FRAME      = TEME
TIME_SYSTEM    = UTC
MEAN_ELEMENT_THEORY = SGP/SGP4

EPOCH          = 2026-01-02T21:55:23.846880
MEAN_MOTION    = 15.36523862
ECCENTRICITY   = .00033676
INCLINATION    = 51.8743
RA_OF_ASC_NODE = 22.9116
ARG_OF_PERICENTER = 107.3950
MEAN_ANOMALY   = 252.7405

EPHEMERIS_TYPE = 0
CLASSIFICATION_TYPE = U
NORAD_CAT_ID   = 67136
ELEMENT_SET_NO = 999
REV_AT_EPOCH   = 380
BSTAR          = .20883408E-2
MEAN_MOTION_DOT = .75979E-3
MEAN_MOTION_DDOT = 0

CCSDS_OMM_VERS = 2.0
CREATION_DATE  = 
ORIGINATOR     = 

OBJECT_NAME    = KUIPER-00181
OBJECT_ID      = 2025-301E
CENTER_NAME    = EARTH
REF_FRAME      = TEME
TIME_SYSTEM    = UTC
MEAN_ELEMENT_THEORY = SGP/SGP4

EPOCH          = 2026-01-02T22:26:42.213984
MEAN_MOTION    = 15.34727603
ECCENTRICITY   = .00104818
INCLINATION    = 51.8640
RA_OF_ASC_NODE = 23.0507
ARG_OF_PERICENTER = 168.2418
MEAN_ANOMALY   = 191.8814

EPHEMERIS_TYPE = 0
CLASSIFICATION_TYPE = U
NORAD_CAT_ID   = 67137
ELEMENT_SET_NO = 999
REV_AT_EPOCH   = 378
BSTAR          = .24462512E-2
MEAN_MOTION_DOT = .84288E-3
MEAN_MOTION_DDOT = 0

CCSDS_OMM_VERS = 2.0
CREATION_DATE  = 
ORIGINATOR     = 

OBJECT_NAME    = KUIPER-00183
OBJECT_ID      = 2025-301F
CENTER_NAME    = EARTH
REF_FRAME      = TEME
TIME_SYSTEM    = UTC
MEAN_ELEMENT_THEORY = SGP/SGP4

EPOCH          = 2026-01-02T22:31:50.174688
MEAN_MOTION    = 15.34491443
ECCENTRICITY   = .00111655
INCLINATION    = 51.8614
RA_OF_ASC_NODE = 23.0707
ARG_OF_PERICENTER = 170.3736
MEAN_ANOMALY   = 189.7465

EPHEMERIS_TYPE = 0
CLASSIFICATION_TYPE = U
NORAD_CAT_ID   = 67138
ELEMENT_SET_NO = 999
REV_AT_EPOCH   = 379
BSTAR          = .14780277E-2
MEAN_MOTION_DOT = .50178E-3
MEAN_MOTION_DDOT = 0

CCSDS_OMM_VERS = 2.0
CREATION_DATE  = 
ORIGINATOR     = 

OBJECT_NAME    = KUIPER-00184
OBJECT_ID      = 2025-301G
CENTER_NAME    = EARTH
REF_FRAME      = TEME
TIME_SYSTEM    = UTC
MEAN_ELEMENT_THEORY = SGP/SGP4

EPOCH          = 2026-01-02T22:25:26.354784
MEAN_MOTION    = 15.34799875
ECCENTRICITY   = .00097015
INCLINATION    = 51.8629
RA_OF_ASC_NODE = 23.0439
ARG_OF_PERICENTER = 165.5949
MEAN_ANOMALY   = 194.5315

EPHEMERIS_TYPE = 0
CLASSIFICATION_TYPE = U
NORAD_CAT_ID   = 67139
ELEMENT_SET_NO = 999
REV_AT_EPOCH   = 390
BSTAR          = .1510171E-2
MEAN_MOTION_DOT = .51773E-3
MEAN_MOTION_DDOT = 0

CCSDS_OMM_VERS = 2.0
CREATION_DATE  = 
ORIGINATOR     = 

OBJECT_NAME    = KUIPER-00186
OBJECT_ID      = 2025-301H
CENTER_NAME    = EARTH
REF_FRAME      = TEME
TIME_SYSTEM    = UTC
MEAN_ELEMENT_THEORY = SGP/SGP4

EPOCH          = 2026-01-02T22:15:53.399232
MEAN_MOTION    = 15.35445097
ECCENTRICITY   = .00077006
INCLINATION    = 51.8688
RA_OF_ASC_NODE = 23.0057
ARG_OF_PERICENTER = 153.4859
MEAN_ANOMALY   = 206.6522

EPHEMERIS_TYPE = 0
CLASSIFICATION_TYPE = U
NORAD_CAT_ID   = 67140
ELEMENT_SET_NO = 999
REV_AT_EPOCH   = 362
BSTAR          = .11032437E-2
MEAN_MOTION_DOT = .38421E-3
MEAN_MOTION_DDOT = 0

CCSDS_OMM_VERS = 2.0
CREATION_DATE  = 
ORIGINATOR     = 

OBJECT_NAME    = KUIPER-00187
OBJECT_ID      = 2025-301J
CENTER_NAME    = EARTH
REF_FRAME      = TEME
TIME_SYSTEM    = UTC
MEAN_ELEMENT_THEORY = SGP/SGP4

EPOCH          = 2026-01-02T22:02:53.017152
MEAN_MOTION    = 15.36120281
ECCENTRICITY   = .00053019
INCLINATION    = 51.8719
RA_OF_ASC_NODE = 22.9485
ARG_OF_PERICENTER = 142.0034
MEAN_ANOMALY   = 218.1327

EPHEMERIS_TYPE = 0
CLASSIFICATION_TYPE = U
NORAD_CAT_ID   = 67141
ELEMENT_SET_NO = 999
REV_AT_EPOCH   = 362
BSTAR          = .13726706E-2
MEAN_MOTION_DOT = .48997E-3
MEAN_MOTION_DDOT = 0

CCSDS_OMM_VERS = 2.0
CREATION_DATE  = 
ORIGINATOR     = 

OBJECT_NAME    = KUIPER-00188
OBJECT_ID      = 2025-301K
CENTER_NAME    = EARTH
REF_FRAME      = TEME
TIME_SYSTEM    = UTC
MEAN_ELEMENT_THEORY = SGP/SGP4

EPOCH          = 2026-01-02T22:17:24.726624
MEAN_MOTION    = 15.35389810
ECCENTRICITY   = .00075607
INCLINATION    = 51.8698
RA_OF_ASC_NODE = 23.0132
ARG_OF_PERICENTER = 157.4070
MEAN_ANOMALY   = 202.7250

EPHEMERIS_TYPE = 0
CLASSIFICATION_TYPE = U
NORAD_CAT_ID   = 67142
ELEMENT_SET_NO = 999
REV_AT_EPOCH   = 362
BSTAR          = .10002625E-2
MEAN_MOTION_DOT = .34718E-3
MEAN_MOTION_DDOT = 0

CCSDS_OMM_VERS = 2.0
CREATION_DATE  = 
ORIGINATOR     = 

OBJECT_NAME    = KUIPER-00191
OBJECT_ID      = 2025-301L
CENTER_NAME    = EARTH
REF_FRAME      = TEME
TIME_SYSTEM    = UTC
MEAN_ELEMENT_THEORY = SGP/SGP4

EPOCH          = 2026-01-02T22:13:59.193984
MEAN_MOTION    = 15.35520366
ECCENTRICITY   = .00067384
INCLINATION    = 51.8679
RA_OF_ASC_NODE = 22.9969
ARG_OF_PERICENTER = 153.5105
MEAN_ANOMALY   = 206.6227

EPHEMERIS_TYPE = 0
CLASSIFICATION_TYPE = U
NORAD_CAT_ID   = 67143
ELEMENT_SET_NO = 999
REV_AT_EPOCH   = 365
BSTAR          = .23463369E-2
MEAN_MOTION_DOT = .82812E-3
MEAN_MOTION_DDOT = 0

CCSDS_OMM_VERS = 2.0
CREATION_DATE  = 
ORIGINATOR     = 

OBJECT_NAME    = KUIPER-00196
OBJECT_ID      = 2025-301M
CENTER_NAME    = EARTH
REF_FRAME      = TEME
TIME_SYSTEM    = UTC
MEAN_ELEMENT_THEORY = SGP/SGP4

EPOCH          = 2026-01-02T21:59:50.046144
MEAN_MOTION    = 15.36296436
ECCENTRICITY   = .00038561
INCLINATION    = 51.8736
RA_OF_ASC_NODE = 22.9334
ARG_OF_PERICENTER = 119.1677
MEAN_ANOMALY   = 240.9695

EPHEMERIS_TYPE = 0
CLASSIFICATION_TYPE = U
NORAD_CAT_ID   = 67144
ELEMENT_SET_NO = 999
REV_AT_EPOCH   = 362
BSTAR          = .11149889E-2
MEAN_MOTION_DOT = .39898E-3
MEAN_MOTION_DDOT = 0

