KUIPER-00144            
1 67133U 25301A   26002.92317381  .00024652  00000+0  70598-3 0  9995
2 67133  51.8707  22.9770 0006317 141.9205 218.2229 15.35769097  3625
KUIPER-00164            
1 67134U 25301B   26002.91518354  .00031547  00000+0  88173-3 0  9997
2 67134  51.8732  22.9257 0002998 124.7860 235.3409 15.36407814  3808
KUIPER-00175            
1 67135U 25301C   26002.90961105  .00034791  00000+0  95472-3 0  9997
2 67135  51.8748  22.8846 0002659  76.8227 283.3056 15.36931402  3690
KUIPER-00179            
1 67136U 25301D   26002.91347045  .00075979  00000+0  20883-2 0  9996
2 67136  51.8743  22.9116 0003367 107.3950 252.7405 15.36523862  3805
KUIPER-00181            
1 67137U 25301E   26002.93521081  .00084288  00000+0  24463-2 0  9994
2 67137  51.8640  23.0507 0010481 168.2418 191.8814 15.34727603  3789
KUIPER-00183            
1 67138U 25301F   26002.93877517  .00050178  00000+0  14780-2 0  9995
2 67138  51.8614  23.0707 0011165 170.3736 189.7465 15.34491443  3799
KUIPER-00184            
1 67139U 25301G   26002.93433281  .00051773  00000+0  15102-2 0  9993
2 67139  51.8629  23.0439 0009701 165.5949 194.5315 15.34799875  3904
KUIPER-00186            
1 67140U 25301H   26002.92770138  .00038421  00000+0  11032-2 0  9992
2 67140  51.8688  23.0057 0007700 153.4859 206.6522 15.35445097  3629
KUIPER-00187            
1 67141U 25301J   26002.91866918  .00048997  00000+0  13727-2 0  9996
2 67141  51.8719  22.9485 0005301 142.0034 218.1327 15.36120281  3629
KUIPER-00188            
1 67142U 25301K   26002.92875841  .00034718  00000+0  10003-2 0  9993
2 67142  51.8698  23.0132 0007560 157.4070 202.7250 15.35389810  3624
KUIPER-00191            
1 67143U 25301L   26002.92637956  .00082812  00000+0  23463-2 0  9999
2 67143  51.8679  22.9969 0006738 153.5105 206.6227 15.35520366  3655
KUIPER-00196            
1 67144U 25301M   26002.91655146  .00039898  00000+0  11150-2 0  9996
2 67144  51.8736  22.9334 0003856 119.1677 240.9695 15.36296436  3622
